ORBCOMM FM05            
1 25117U 97084F   25105.82269782  .00003301  00000+0  96384-3 0  9990
2 25117  45.0147 307.4431 0001823 245.7598 114.3063 14.45690778431585
ORBCOMM FM06            
1 25118U 97084G   25105.91657465  .00003478  00000+0  10105-2 0  9991
2 25118  45.0138 306.7980 0000845 234.5011 267.0014 14.45831228432519
ORBCOMM FM07            
1 25119U 97084H   25105.90245066  .00003263  00000+0  95093-3 0  9993
2 25119  45.0136 307.6326 0002616 243.5447 116.5136 14.45804692432500
ORBCOMM FM03            
1 25158U 98007B   25105.70934880  .00002193  00000+0  81642-3 0  9995
2 25158 107.9651   7.2797 0045951 356.3652   3.7148 14.34310706415088
ORBCOMM FM04            
1 25159U 98007C   25105.63478244  .00002440  00000+0  90017-3 0  9996
2 25159 107.9635  10.3044 0041761 353.7922   6.2696 14.34567172415253
ORBCOMM FM17            
1 25413U 98046A   25105.74295307  .00001736  00000+0  65342-3 0  9991
2 25413  44.9936 192.2825 0004493 248.7122 111.3245 14.34954608394206
ORBCOMM FM18            
1 25414U 98046B   25105.35830252  .00002724  00000+0  93196-3 0  9999
2 25414  44.9908 113.1606 0006531 311.3909  48.6378 14.38346213395201
ORBCOMM FM19            
1 25415U 98046C   25105.29955963  .00002585  00000+0  89019-3 0  9994
2 25415  44.9918 115.3396 0005484 303.4875  71.4049 14.38153224395154
